OBJECT_NAME,OBJECT_ID,EPOCH,MEAN_MOTION,ECCENTRICITY,INCLINATION,RA_OF_ASC_NODE,ARG_OF_PERICENTER,MEAN_ANOMALY,EPHEMERIS_TYPE,CLASSIFICATION_TYPE,NORAD_CAT_ID,ELEMENT_SET_NO,REV_AT_EPOCH,BSTAR,MEAN_MOTION_DOT,MEAN_MOTION_DDOT
ATLAS CENTAUR 2,1963-047A,2026-07-08T11:36:17.174304,14.12556845,.05457349,30.3514,240.2960,65.3288,300.3137,0,U,694,999,14871,.10255164E-3,.926E-5,0
THOR AGENA D R/B,1964-002A,2026-07-08T10:29:20.104800,14.34074203,.00317461,99.1153,209.3151,266.8944,92.8606,0,U,733,999,25560,.57617668E-4,.113E-5,0
SL-3 R/B,1964-053B,2026-07-08T09:45:39.967776,14.61437106,.00804792,65.0780,337.2936,254.4618,104.7587,0,U,877,999,28443,.43527253E-4,.99E-6,0
SL-8 R/B,1967-045B,2026-07-08T06:15:41.890464,14.45692942,.0063005,74.0112,122.8999,101.4976,259.3266,0,U,2802,999,10644,.64632382E-4,.207E-5,0
SL-8 R/B,1968-040B,2026-07-08T09:41:48.898752,15.03919789,.00254147,74.0306,66.8965,216.4012,143.5450,0,U,3230,999,10815,.14113911E-3,.1916E-4,0
OAO 2,1968-110A,2026-07-08T10:33:34.650432,14.47360188,.00048347,34.9944,311.0128,84.1152,276.0089,0,U,3597,999,3660,.40874522E-4,.133E-5,0
ISIS 1,1969-009A,2026-07-08T06:11:37.620384,11.30436001,.17070012,88.4447,142.0854,205.6602,144.9162,0,U,3669,999,36215,.41989565E-4,.66E-6,0
SERT 2,1970-009A,2026-07-08T13:24:30.297600,13.58740672,.00042749,99.2841,126.1250,207.5269,326.3835,0,U,4327,999,79630,.35534051E-4,-.15E-6,0
SL-3 R/B,1971-028B,2026-07-08T14:05:39.744384,15.71919661,.00144428,81.2315,261.5219,204.9379,155.1184,0,U,5118,999,760,.34693786E-3,.4557E-3,0
ASTEX 1,1971-089A,2026-07-08T05:54:02.815488,14.50868040,.00171452,92.7002,190.6378,44.0259,316.2309,0,U,5560,999,87978,.71728944E-4,.282E-5,0
SL-8 R/B,1971-119B,2026-07-08T08:26:19.756320,14.39675085,.05430897,73.8883,309.7844,251.4965,102.6461,0,U,5730,999,67284,.21104841E-3,.4101E-4,0
OAO 3 (COPERNICUS),1972-065A,2026-07-08T10:20:22.662240,14.60072469,.00059557,35.0069,329.3603,65.1858,332.0568,0,U,6153,999,86385,.48507753E-4,.216E-5,0
ATLAS CENTAUR R/B,1972-065B,2026-07-08T08:30:57.495168,14.77959332,.00341711,35.0027,318.4446,305.6621,54.0900,0,U,6155,999,85912,.89040111E-4,.634E-5,0
SL-8 R/B,1975-112B,2026-07-08T09:28:27.155136,14.38255597,.00164381,74.0600,156.8583,220.8645,139.1278,0,U,8459,999,64922,.60389643E-4,.158E-5,0
SL-3 R/B,1977-057B,2026-07-08T13:08:24.196128,15.48316379,.00065125,97.5852,7.1305,193.8484,166.2588,0,U,10114,999,68701,.15023811E-3,.7844E-4,0
SEASAT 1,1978-064A,2026-07-08T06:23:55.460832,14.46257343,.00012401,108.0185,18.5397,248.1858,111.9156,0,U,10967,999,52394,.7045704E-4,.115E-5,0
SL-14 R/B,1979-011B,2026-07-08T10:26:29.482080,14.92034061,.00164088,82.5248,341.9879,19.5023,340.6821,0,U,11267,999,54678,.35185109E-4,.383E-5,0
SL-8 R/B,1979-089B,2026-07-08T11:56:17.280672,14.42413227,.00157297,74.0672,227.4086,4.0039,356.1241,0,U,11574,999,45352,.52876563E-4,.149E-5,0
SL-14 R/B,1980-005B,2026-07-08T11:03:16.074144,14.91046203,.00171391,82.5133,192.6599,117.9922,242.3034,0,U,11672,999,49448,.39521683E-4,.418E-5,0
SL-8 R/B,1981-003B,2026-07-08T10:14:46.433184,15.14899261,.02502606,82.9376,178.0287,117.1706,245.5281,0,U,12139,999,33293,.28833593E-3,.12103E-3,0
SL-3 R/B,1981-046B,2026-07-08T12:07:29.479584,15.44673074,.00162085,81.2304,144.3800,322.5400,37.4713,0,U,12465,999,45706,.18427196E-3,.8663E-4,0
SL-3 R/B,1981-103B,2026-07-08T11:32:53.645280,15.22456927,.00116657,81.1579,71.6135,236.1144,123.8979,0,U,12904,999,99160,.13401396E-3,.3131E-4,0
SL-3 R/B,1982-013B,2026-07-08T12:16:53.798592,15.22930538,.00227265,81.1735,19.0229,129.9803,230.3430,0,U,13068,999,42273,.10515808E-3,.2511E-4,0
SL-3 R/B,1982-039B,2026-07-08T13:29:58.662528,15.10672240,.00277279,81.1501,76.3925,281.5895,78.2219,0,U,13154,999,39988,.15358105E-3,.2587E-4,0
SL-3 R/B,1982-079B,2026-07-08T13:26:12.329952,15.25973091,.0024898,81.1452,50.2028,115.0267,245.3556,0,U,13403,999,39612,.14097877E-3,.368E-4,0
SL-14 R/B,1982-092B,2026-07-08T12:20:31.567200,14.86761901,.00187543,82.5668,28.3440,259.5797,122.1766,0,U,13553,999,34688,.31422776E-4,.305E-5,0
SL-3 R/B,1983-010B,2026-07-08T11:58:13.017792,15.49787934,.0013818,81.1003,213.7060,348.4786,11.6142,0,U,13819,999,37663,.17317973E-3,.97E-4,0
SL-3 R/B,1983-075B,2026-07-08T12:02:55.392864,15.40890622,.0021617,97.6109,198.8823,152.2107,208.0299,0,U,14208,999,34874,.17597951E-3,.7196E-4,0
COSMOS 1536,1984-013A,2026-07-08T10:04:16.261824,15.25289998,.00132792,82.5452,347.6927,212.9134,147.1278,0,U,14699,999,29101,.14462958E-3,.3681E-4,0
SL-14 R/B,1984-027B,2026-07-08T06:57:58.685184,14.86075903,.00164863,82.5428,131.9282,296.6263,63.3264,0,U,14820,999,26554,.34111769E-4,.323E-5,0
