ATLAS CENTAUR 2         
1 00694U 63047A   26189.48353211  .00000926  00000+0  10255-3 0  9994
2 00694  30.3514 240.2960 0545734  65.3288 300.3137 14.12556845148719
THOR AGENA D R/B        
1 00733U 64002A   26189.43703825  .00000113  00000+0  57618-4 0  9998
2 00733  99.1153 209.3151 0031746 266.8944  92.8606 14.34074203255601
SL-3 R/B                
1 00877U 64053B   26189.40671259  .00000099  00000+0  43527-4 0  9992
2 00877  65.0780 337.2936 0080479 254.4618 104.7587 14.61437106284437
SL-8 R/B                
1 02802U 67045B   26189.26090151  .00000207  00000+0  64632-4 0  9997
2 02802  74.0112 122.8999 0063005 101.4976 259.3266 14.45692942106445
SL-8 R/B                
1 03230U 68040B   26189.40403818  .00001916  00000+0  14114-3 0  9990
2 03230  74.0306  66.8965 0025414 216.4012 143.5450 15.03919789108151
OAO 2                   
1 03597U 68110A   26189.43998438  .00000133  00000+0  40875-4 0  9998
2 03597  34.9944 311.0128 0004834  84.1152 276.0089 14.47360188 36604
ISIS 1                  
1 03669U 69009A   26189.25807431  .00000066  00000+0  41990-4 0  9992
2 03669  88.4447 142.0854 1707001 205.6602 144.9162 11.30436001362155
SERT 2                  
1 04327U 70009A   26189.55868400 -.00000015  00000+0  35534-4 0  9994
2 04327  99.2841 126.1250 0004274 207.5269 326.3835 13.58740672796304
SL-3 R/B                
1 05118U 71028B   26189.58726556  .00045570  00000+0  34694-3 0  9992
2 05118  81.2315 261.5219 0014442 204.9379 155.1184 15.71919661  7606
ASTEX 1                 
1 05560U 71089A   26189.24586592  .00000282  00000+0  71729-4 0  9999
2 05560  92.7002 190.6378 0017145  44.0259 316.2309 14.50868040879783
SL-8 R/B                
1 05730U 71119B   26189.35161755  .00004101  00000+0  21105-3 0  9990
2 05730  73.8883 309.7844 0543089 251.4965 102.6461 14.39675085672845
OAO 3 (COPERNICUS)      
1 06153U 72065A   26189.43081785  .00000216  00000+0  48508-4 0  9994
2 06153  35.0069 329.3603 0005955  65.1858 332.0568 14.60072469863859
ATLAS CENTAUR R/B       
1 06155U 72065B   26189.35483212  .00000634  00000+0  89040-4 0  9998
2 06155  35.0027 318.4446 0034171 305.6621  54.0900 14.77959332859128
SL-8 R/B                
1 08459U 75112B   26189.39475874  .00000158  00000+0  60390-4 0  9990
2 08459  74.0600 156.8583 0016438 220.8645 139.1278 14.38255597649223
SL-3 R/B                
1 10114U 77057B   26189.54750227  .00007844  00000+0  15024-3 0  9998
2 10114  97.5852   7.1305 0006512 193.8484 166.2588 15.48316379687017
SEASAT 1                
1 10967U 78064A   26189.26661413  .00000115  00000+0  70457-4 0  9996
2 10967 108.0185  18.5397 0001240 248.1858 111.9156 14.46257343523940
SL-14 R/B               
1 11267U 79011B   26189.43506345  .00000383  00000+0  35185-4 0  9990
2 11267  82.5248 341.9879 0016408  19.5023 340.6821 14.92034061546782
SL-8 R/B                
1 11574U 79089B   26189.49742223  .00000149  00000+0  52877-4 0  9996
2 11574  74.0672 227.4086 0015729   4.0039 356.1241 14.42413227453526
SL-14 R/B               
1 11672U 80005B   26189.46060271  .00000418  00000+0  39522-4 0  9999
2 11672  82.5133 192.6599 0017139 117.9922 242.3034 14.91046203494481
SL-8 R/B                
1 12139U 81003B   26189.42692631  .00012103  00000+0  28834-3 0  9991
2 12139  82.9376 178.0287 0250260 117.1706 245.5281 15.14899261332937
SL-3 R/B                
1 12465U 81046B   26189.50520231  .00008663  00000+0  18427-3 0  9998
2 12465  81.2304 144.3800 0016208 322.5400  37.4713 15.44673074457069
SL-3 R/B                
1 12904U 81103B   26189.48117645  .00003131  00000+0  13401-3 0  9990
2 12904  81.1579  71.6135 0011665 236.1144 123.8979 15.22456927991609
SL-3 R/B                
1 13068U 82013B   26189.51173378  .00002511  00000+0  10516-3 0  9997
2 13068  81.1735  19.0229 0022726 129.9803 230.3430 15.22930538422730
SL-3 R/B                
1 13154U 82039B   26189.56248452  .00002587  00000+0  15358-3 0  9994
2 13154  81.1501  76.3925 0027727 281.5895  78.2219 15.10672240399881
SL-3 R/B                
1 13403U 82079B   26189.55986493  .00003680  00000+0  14098-3 0  9993
2 13403  81.1452  50.2028 0024898 115.0267 245.3556 15.25973091396127
SL-14 R/B               
1 13553U 82092B   26189.51425425  .00000305  00000+0  31423-4 0  9996
2 13553  82.5668  28.3440 0018754 259.5797 122.1766 14.86761901346881
SL-3 R/B                
1 13819U 83010B   26189.49876178  .00009700  00000+0  17318-3 0  9998
2 13819  81.1003 213.7060 0013818 348.4786  11.6142 15.49787934376634
SL-3 R/B                
1 14208U 83075B   26189.50203001  .00007196  00000+0  17598-3 0  9990
2 14208  97.6109 198.8823 0021617 152.2107 208.0299 15.40890622348746
COSMOS 1536             
1 14699U 84013A   26189.41963266  .00003681  00000+0  14463-3 0  9996
2 14699  82.5452 347.6927 0013279 212.9134 147.1278 15.25289998291010
SL-14 R/B               
1 14820U 84027B   26189.29026256  .00000323  00000+0  34112-4 0  9996
2 14820  82.5428 131.9282 0016486 296.6263  63.3264 14.86075903265540
